[
  {
    "ORDINAL": "1",
    "COMMENT": "GENERATED VIA SPACETRACK.ORG API",
    "ORIGINATOR": "18 SPCS",
    "NORAD_CAT_ID": "817",
    "OBJECT_NAME": "SL-3 R/B",
    "OBJECT_TYPE": "ROCKET BODY",
    "CLASSIFICATION_TYPE": "U",
    "INTLDES": "64033B",
    "EPOCH": "1964-07-10 14:10:09",
    "EPOCH_MICROSECONDS": "175872",
    "MEAN_MOTION": "16.45956378",
    "ECCENTRICITY": "0",
    "INCLINATION": "64.9321",
    "RA_OF_ASC_NODE": "33.4251",
    "ARG_OF_PERICENTER": "82.2526",
    "MEAN_ANOMALY": "277.7484",
    "EPHEMERIS_TYPE": "0",
    "ELEMENT_SET_NO": "999",
    "REV_AT_EPOCH": "278",
    "BSTAR": "0",
    "MEAN_MOTION_DOT": "0.09757828",
    "MEAN_MOTION_DDOT": "0",
    "FILE": "33910",
    "TLE_LINE0": "0 SL-3 R/B",
    "TLE_LINE1": "1 00817U 64033  B 64192.59038398  .09757828 +00000-0 +00000-0 0  9995",
    "TLE_LINE2": "2 00817 064.9321 033.4251 0000000 082.2526 277.7484 16.45956378002786",
    "OBJECT_ID": "1964-033B",
    "OBJECT_NUMBER": "817",
    "SEMIMAJOR_AXIS": "6528.147",
    "PERIOD": "87.487",
    "APOGEE": "150.012",
    "PERIGEE": "150.012",
    "DECAYED": "1"
  },
  {
    "ORDINAL": "1",
    "COMMENT": "GENERATED VIA SPACETRACK.ORG API",
    "ORIGINATOR": "18 SPCS",
    "NORAD_CAT_ID": "818",
    "OBJECT_NAME": "SL-3 DEB",
    "OBJECT_TYPE": "DEBRIS",
    "CLASSIFICATION_TYPE": "U",
    "INTLDES": "64033C",
    "EPOCH": "1964-06-23 18:46:01",
    "EPOCH_MICROSECONDS": "611840",
    "MEAN_MOTION": "16.18314464",
    "ECCENTRICITY": "0.005884",
    "INCLINATION": "65.1026",
    "RA_OF_ASC_NODE": "96.1897",
    "ARG_OF_PERICENTER": "33.4951",
    "MEAN_ANOMALY": "326.8758",
    "EPHEMERIS_TYPE": "0",
    "ELEMENT_SET_NO": "999",
    "REV_AT_EPOCH": "6",
    "BSTAR": "0",
    "MEAN_MOTION_DOT": "0.0099505",
    "MEAN_MOTION_DDOT": "0",
    "FILE": "33910",
    "TLE_LINE0": "0 SL-3 DEB",
    "TLE_LINE1": "1 00818U 64033  C 64175.78196310  .00995050 +00000-0 +00000-0 0  9999",
    "TLE_LINE2": "2 00818 065.1026 096.1897 0058840 033.4951 326.8758 16.18314464000062",
    "OBJECT_ID": "1964-033C",
    "OBJECT_NUMBER": "818",
    "SEMIMAJOR_AXIS": "6602.273",
    "PERIOD": "88.981",
    "APOGEE": "262.986",
    "PERIGEE": "185.291",
    "DECAYED": "1"
  },
  {
    "ORDINAL": "1",
    "COMMENT": "GENERATED VIA SPACETRACK.ORG API",
    "ORIGINATOR": "18 SPCS",
    "NORAD_CAT_ID": "819",
    "OBJECT_NAME": "SL-3 DEB",
    "OBJECT_TYPE": "DEBRIS",
    "CLASSIFICATION_TYPE": "U",
    "INTLDES": "64033D",
    "EPOCH": "1964-06-24 11:06:44",
    "EPOCH_MICROSECONDS": "748287",
    "MEAN_MOTION": "16.22356459",
    "ECCENTRICITY": "0.0039988",
    "INCLINATION": "64.9703",
    "RA_OF_ASC_NODE": "93.7945",
    "ARG_OF_PERICENTER": "21.9385",
    "MEAN_ANOMALY": "338.2322",
    "EPHEMERIS_TYPE": "0",
    "ELEMENT_SET_NO": "999",
    "REV_AT_EPOCH": "17",
    "BSTAR": "0",
    "MEAN_MOTION_DOT": "0.07743744",
    "MEAN_MOTION_DDOT": "0",
    "FILE": "33910",
    "TLE_LINE0": "0 SL-3 DEB",
    "TLE_LINE1": "1 00819U 64033  D 64176.46301792  .07743744 +00000-0 +00000-0 0  9996",
    "TLE_LINE2": "2 00819 064.9703 093.7945 0039988 021.9385 338.2322 16.22356459000175",
    "OBJECT_ID": "1964-033D",
    "OBJECT_NUMBER": "819",
    "SEMIMAJOR_AXIS": "6591.303",
    "PERIOD": "88.760",
    "APOGEE": "239.525",
    "PERIGEE": "186.811",
    "DECAYED": "1"
  },
  {
    "ORDINAL": "1",
    "COMMENT": "GENERATED VIA SPACETRACK.ORG API",
    "ORIGINATOR": "18 SPCS",
    "NORAD_CAT_ID": "820",
    "OBJECT_NAME": "OPS 3236 DEB",
    "OBJECT_TYPE": "DEBRIS",
    "CLASSIFICATION_TYPE": "U",
    "INTLDES": "64030B",
    "EPOCH": "1964-08-06 22:58:16",
    "EPOCH_MICROSECONDS": "436351",
    "MEAN_MOTION": "16.16814818",
    "ECCENTRICITY": "0.0026392",
    "INCLINATION": "114.9494",
    "RA_OF_ASC_NODE": "9.6018",
    "ARG_OF_PERICENTER": "345.3077",
    "MEAN_ANOMALY": "14.7226",
    "EPHEMERIS_TYPE": "0",
    "ELEMENT_SET_NO": "999",
    "REV_AT_EPOCH": "856",
    "BSTAR": "0",
    "MEAN_MOTION_DOT": "0.05697386",
    "MEAN_MOTION_DDOT": "0",
    "FILE": "33910",
    "TLE_LINE0": "0 OPS 3236 DEB",
    "TLE_LINE1": "1 00820U 64030  B 64219.95713468  .05697386 +00000-0 +00000-0 0  9992",
    "TLE_LINE2": "2 00820 114.9494 009.6018 0026392 345.3077 014.7226 16.16814818008564",
    "OBJECT_ID": "1964-030B",
    "OBJECT_NUMBER": "820",
    "SEMIMAJOR_AXIS": "6606.355",
    "PERIOD": "89.064",
    "APOGEE": "245.656",
    "PERIGEE": "210.785",
    "DECAYED": "1"
  },
  {
    "ORDINAL": "1",
    "COMMENT": "GENERATED VIA SPACETRACK.ORG API",
    "ORIGINATOR": "18 SPCS",
    "NORAD_CAT_ID": "821",
    "OBJECT_NAME": "OPS 3754 DEB",
    "OBJECT_TYPE": "DEBRIS",
    "CLASSIFICATION_TYPE": "U",
    "INTLDES": "64032B",
    "EPOCH": "1964-06-30 23:17:56",
    "EPOCH_MICROSECONDS": "161824",
    "MEAN_MOTION": "16.16093423",
    "ECCENTRICITY": "0.0144017",
    "INCLINATION": "85.1115",
    "RA_OF_ASC_NODE": "313.3741",
    "ARG_OF_PERICENTER": "97.4747",
    "MEAN_ANOMALY": "264.1694",
    "EPHEMERIS_TYPE": "0",
    "ELEMENT_SET_NO": "999",
    "REV_AT_EPOCH": "175",
    "BSTAR": "0",
    "MEAN_MOTION_DOT": "0.07076123",
    "MEAN_MOTION_DDOT": "0",
    "FILE": "33910",
    "TLE_LINE0": "0 OPS 3754 DEB",
    "TLE_LINE1": "1 00821U 64032  B 64182.97078891  .07076123 +00000-0 +00000-0 0  9992",
    "TLE_LINE2": "2 00821 085.1115 313.3741 0144017 097.4747 264.1694 16.16093423001751",
    "OBJECT_ID": "1964-032B",
    "OBJECT_NUMBER": "821",
    "SEMIMAJOR_AXIS": "6608.321",
    "PERIOD": "89.104",
    "APOGEE": "325.357",
    "PERIGEE": "135.015",
    "DECAYED": "1"
  },
  {
    "ORDINAL": "1",
    "COMMENT": "GENERATED VIA SPACETRACK.ORG API",
    "ORIGINATOR": "18 SPCS",
    "NORAD_CAT_ID": "822",
    "OBJECT_NAME": "COSMOS 34",
    "OBJECT_TYPE": "PAYLOAD",
    "CLASSIFICATION_TYPE": "U",
    "INTLDES": "64034A",
    "EPOCH": "1964-07-08 09:20:04",
    "EPOCH_MICROSECONDS": "731359",
    "MEAN_MOTION": "16.00924915",
    "ECCENTRICITY": "0.0107157",
    "INCLINATION": "64.9052",
    "RA_OF_ASC_NODE": "95.1665",
    "ARG_OF_PERICENTER": "34.1856",
    "MEAN_ANOMALY": "326.4997",
    "EPHEMERIS_TYPE": "0",
    "ELEMENT_SET_NO": "999",
    "REV_AT_EPOCH": "111",
    "BSTAR": "0",
    "MEAN_MOTION_DOT": "0.00065479",
    "MEAN_MOTION_DDOT": "0",
    "FILE": "33910",
    "TLE_LINE0": "0 COSMOS 34",
    "TLE_LINE1": "1 00822U 64034  A 64190.38894365  .00065479 +00000-0 +00000-0 0  9996",
    "TLE_LINE2": "2 00822 064.9052 095.1665 0107157 034.1856 326.4997 16.00924915001110",
    "OBJECT_ID": "1964-034A",
    "OBJECT_NUMBER": "822",
    "SEMIMAJOR_AXIS": "6649.997",
    "PERIOD": "89.948",
    "APOGEE": "343.122",
    "PERIGEE": "200.603",
    "DECAYED": "1"
  },
  {
    "ORDINAL": "1",
    "COMMENT": "GENERATED VIA SPACETRACK.ORG API",
    "ORIGINATOR": "18 SPCS",
    "NORAD_CAT_ID": "823",
    "OBJECT_NAME": "SL-3 R/B",
    "OBJECT_TYPE": "ROCKET BODY",
    "CLASSIFICATION_TYPE": "U",
    "INTLDES": "64034B",
    "EPOCH": "1964-07-13 16:54:28",
    "EPOCH_MICROSECONDS": "750751",
    "MEAN_MOTION": "16.39060818",
    "ECCENTRICITY": "0.00103",
    "INCLINATION": "64.9085",
    "RA_OF_ASC_NODE": "74.793",
    "ARG_OF_PERICENTER": "10.8496",
    "MEAN_ANOMALY": "349.2448",
    "EPHEMERIS_TYPE": "0",
    "ELEMENT_SET_NO": "999",
    "REV_AT_EPOCH": "198",
    "BSTAR": "0",
    "MEAN_MOTION_DOT": "0.0286285",
    "MEAN_MOTION_DDOT": "0",
    "FILE": "33910",
    "TLE_LINE0": "0 SL-3 R/B",
    "TLE_LINE1": "1 00823U 64034  B 64195.70449943  .02862850 +00000-0 +00000-0 0  9996",
    "TLE_LINE2": "2 00823 064.9085 074.7930 0010300 010.8496 349.2448 16.39060818001983",
    "OBJECT_ID": "1964-034B",
    "OBJECT_NUMBER": "823",
    "SEMIMAJOR_AXIS": "6546.443",
    "PERIOD": "87.855",
    "APOGEE": "175.051",
    "PERIGEE": "161.565",
    "DECAYED": "1"
  },
  {
    "ORDINAL": "1",
    "COMMENT": "GENERATED VIA SPACETRACK.ORG API",
    "ORIGINATOR": "18 SPCS",
    "NORAD_CAT_ID": "824",
    "OBJECT_NAME": "OPS 3395",
    "OBJECT_TYPE": "PAYLOAD",
    "CLASSIFICATION_TYPE": "U",
    "INTLDES": "64035A",
    "EPOCH": "1969-08-06 18:57:52",
    "EPOCH_MICROSECONDS": "436735",
    "MEAN_MOTION": "16.35557127",
    "ECCENTRICITY": "0.000616",
    "INCLINATION": "82.0248",
    "RA_OF_ASC_NODE": "162.5331",
    "ARG_OF_PERICENTER": "230.1429",
    "MEAN_ANOMALY": "129.9202",
    "EPHEMERIS_TYPE": "0",
    "ELEMENT_SET_NO": "999",
    "REV_AT_EPOCH": "28469",
    "BSTAR": "0",
    "MEAN_MOTION_DOT": "0.04184065",
    "MEAN_MOTION_DDOT": "0",
    "FILE": "33933",
    "TLE_LINE0": "0 OPS 3395",
    "TLE_LINE1": "1 00824U 64035  A 69218.79019024  .04184065 +00000-0 +00000-0 0  9998",
    "TLE_LINE2": "2 00824 082.0248 162.5331 0006160 230.1429 129.9202 16.35557127284691",
    "OBJECT_ID": "1964-035A",
    "OBJECT_NUMBER": "824",
    "SEMIMAJOR_AXIS": "6555.789",
    "PERIOD": "88.043",
    "APOGEE": "181.692",
    "PERIGEE": "173.616",
    "DECAYED": "1"
  }
]
